[{"OBJECT_NAME":"IRIDIUM 107","OBJECT_ID":"2017-061F","EPOCH":"2026-03-09T22:26:14.574624","MEAN_MOTION":14.34217551,"ECCENTRICITY":0.00017516,"INCLINATION":86.3913,"RA_OF_ASC_NODE":66.7602,"ARG_OF_PERICENTER":87.4442,"MEAN_ANOMALY":272.6954,"EPHEMERIS_TYPE":0,"CLASSIFICATION_TYPE":"U","NORAD_CAT_ID":42960,"ELEMENT_SET_NO":999,"REV_AT_EPOCH":44059,"BSTAR":-3.536384e-6,"MEAN_MOTION_DOT":1.0e-7,"MEAN_MOTION_DDOT":0},{"OBJECT_NAME":"COSMOS 2251 DEB","OBJECT_ID":"1993-036BRL","EPOCH":"2026-03-09T08:07:09.621984","MEAN_MOTION":13.62955777,"ECCENTRICITY":0.0347832,"INCLINATION":73.9518,"RA_OF_ASC_NODE":124.0478,"ARG_OF_PERICENTER":85.0334,"MEAN_ANOMALY":37.1196,"EPHEMERIS_TYPE":0,"CLASSIFICATION_TYPE":"U","NORAD_CAT_ID":38054,"ELEMENT_SET_NO":999,"REV_AT_EPOCH":68359,"BSTAR":0.0020327331,"MEAN_MOTION_DOT":2.372e-5,"MEAN_MOTION_DDOT":0}]
